STARLINK-36073          
1 66844U 25280Z   26193.92291876  .00001944  00000+0  17064-3 0  9998
2 66844  70.0015  18.7397 0002806 267.3132  92.7706 14.98341219 34806
STARLINK-36068          
1 66845U 25280AA  26194.49453546  .00001759  00000+0  15515-3 0  9999
2 66845  70.0022  17.1207 0002790 265.0666  95.0175 14.98333284 34929
STARLINK-36055          
1 66846U 25280AB  26193.93544143  .00003128  00000+0  26973-3 0  9994
2 66846  70.0011  18.7844 0002810 266.7913  93.2925 14.98345699 34845
STARLINK-36061          
1 66847U 25280AC  26194.47786572  .00002222  00000+0  19392-3 0  9990
2 66847  70.0017  17.4658 0002664 261.7653  98.3204 14.98338014 34911
STARLINK-36091          
1 66848U 25281A   26194.44087323  .00009716  00000+0  36206-3 0  9995
2 66848  43.0009 353.6400 0000843 291.5533  68.5229 15.27586712 34096
STARLINK-36102          
1 66849U 25281B   26194.49597916  .00008446  00000+0  31599-3 0  9994
2 66849  43.0020 353.1921 0001422 273.8407  86.2282 15.27588847 35425
STARLINK-36105          
1 66850U 25281C   26194.49212413  .00015324  00000+0  56499-3 0  9991
2 66850  43.0013 353.1605 0001124 259.7501 100.3224 15.27593552 35428
STARLINK-36094          
1 66851U 25281D   26194.47413500  .00017043  00000+0  62728-3 0  9992
2 66851  43.0008 353.0210 0001151 255.9113 104.1611 15.27587469 35423
STARLINK-35992          
1 66852U 25281E   26194.47026749  .00013976  00000+0  51591-3 0  9995
2 66852  43.0027 352.9911 0001701 263.4217  96.6441 15.27613163 35428
STARLINK-35986          
1 66853U 25281F   26194.46642588  .00009411  00000+0  35100-3 0  9997
2 66853  43.0009 352.9657 0001594 278.3484  81.7187 15.27586140 35423
STARLINK-36087          
1 66854U 25281G   26194.46257966  .00010399  00000+0  38668-3 0  9999
2 66854  42.9990 352.9361 0001096 287.9202  72.1530 15.27596092 35427
STARLINK-36090          
1 66855U 25281H   26194.45228742  .00016250  00000+0  59864-3 0  9992
2 66855  43.0008 352.8551 0001932 277.6904  82.3728 15.27584499 35424
STARLINK-36072          
1 66856U 25281J   26194.44472486  .00009187  00000+0  34287-3 0  9991
2 66856  43.0003 353.6660 0002147 277.3436  82.7171 15.27587939 35413
STARLINK-36083          
1 66857U 25281K   26194.50240058  .00013528  00000+0  49997-3 0  9995
2 66857  42.9986 353.2316 0001373 229.9044 130.1688 15.27595442 35424
STARLINK-35118          
1 66858U 25281L   26194.48826691  .00013017  00000+0  48153-3 0  9992
2 66858  43.0003 353.1271 0000901 206.3526 153.7280 15.27592032 35427
STARLINK-35646          
1 66859U 25281M   26194.48441988  .00017365  00000+0  63905-3 0  9997
2 66859  42.9984 353.0945 0001863 165.1862 194.9045 15.27581139 35426
STARLINK-35987          
1 66860U 25281N   26194.46771108  .00010784  00000+0  40072-3 0  9995
2 66860  42.9989 352.9703 0000574 225.7229 134.3576 15.27589737 35420
STARLINK-35991          
1 66861U 25281P   26194.45872536  .00009377  00000+0  34982-3 0  9991
2 66861  42.9972 352.9027 0002174 281.6795  78.3813 15.27582319 35429
STARLINK-35974          
1 66862U 25281Q   26194.48055867  .00015794  00000+0  58198-3 0  9990
2 66862  43.0033 353.0702 0000889 232.4893 127.5878 15.27593690 35428
STARLINK-36134          
1 66863U 25281R   26194.51381991  .00006415  00000+0  24235-3 0  9990
2 66863  43.0032 352.4545 0003058 286.7060  73.3456 15.27592893 35430
STARLINK-36070          
1 66864U 25281S   26194.49983008  .00010832  00000+0  40245-3 0  9992
2 66864  43.0007 353.2139 0001335 222.8866 137.1882 15.27591366 35427
STARLINK-36117          
1 66865U 25281T   26194.52153141  .00003814  00000+0  14803-3 0  9997
2 66865  43.0005 352.5150 0001521 269.1721  90.8957 15.27581153 35434
STARLINK-36126          
1 66866U 25281U   26194.44601279  .00009129  00000+0  34077-3 0  9999
2 66866  43.0009 353.6717 0001259 252.5955 107.4759 15.27588835 35409
STARLINK-36101          
1 66867U 25281V   26193.85367700  .00013590  00000+0  50221-3 0  9998
2 66867  43.0021 356.9674 0001770 266.5164  93.5485 15.27596479 35311
STARLINK-36108          
1 66868U 25281W   26193.84982083  .00013592  00000+0  50218-3 0  9993
2 66868  43.0043 356.9392 0001917 276.1128  83.9505 15.27602101 35319
STARLINK-36092          
1 66869U 25281X   26194.49725840  .00009648  00000+0  35966-3 0  9992
2 66869  43.0024 353.1946 0001372 247.2470 112.8237 15.27581060 35412
STARLINK-36114          
1 66870U 25281Y   26194.42802214  .00008943  00000+0  33402-3 0  9998
2 66870  43.0025 353.5366 0001340 279.9009  80.1692 15.27589498 35404
STARLINK-36095          
1 66871U 25281Z   26194.48957343  .00021610  00000+0  79212-3 0  9994
2 66871  43.0025 353.1354 0001565 243.3551 116.7140 15.27595828 35402
STARLINK-36082          
1 66872U 25281AA  26194.42031149  .00009139  00000+0  34113-3 0  9999
2 66872  43.0062 353.4774 0002087 280.8582  79.2035 15.27587233 35400
STARLINK-36128          
1 66873U 25281AB  26193.49462413  .00007592  00000+0  28526-3 0  9990
2 66873  43.0000 358.5538 0003159 272.2081  87.8408 15.27564574 35218
