OBJECT_NAME,OBJECT_ID,EPOCH,MEAN_MOTION,ECCENTRICITY,INCLINATION,RA_OF_ASC_NODE,ARG_OF_PERICENTER,MEAN_ANOMALY,EPHEMERIS_TYPE,CLASSIFICATION_TYPE,NORAD_CAT_ID,ELEMENT_SET_NO,REV_AT_EPOCH,BSTAR,MEAN_MOTION_DOT,MEAN_MOTION_DDOT
STARLINK-36073,2025-280Z,2026-07-12T22:09:00.180864,14.98341219,.00028064,70.0015,18.7397,267.3132,92.7706,0,U,66844,999,3480,.17063994E-3,.1944E-4,0
STARLINK-36068,2025-280AA,2026-07-13T11:52:07.863744,14.98333284,.000279,70.0022,17.1207,265.0666,95.0175,0,U,66845,999,3492,.15515E-3,.1759E-4,0
STARLINK-36055,2025-280AB,2026-07-12T22:27:02.139552,14.98345699,.00028101,70.0011,18.7844,266.7913,93.2925,0,U,66846,999,3484,.26973065E-3,.3128E-4,0
STARLINK-36061,2025-280AC,2026-07-13T11:28:07.598208,14.98338014,.0002664,70.0017,17.4658,261.7653,98.3204,0,U,66847,999,3491,.19392E-3,.2222E-4,0
STARLINK-36091,2025-281A,2026-07-13T10:34:51.447072,15.27586712,.0000843,43.0009,353.6400,291.5533,68.5229,0,U,66848,999,3409,.36206E-3,.9716E-4,0
STARLINK-36102,2025-281B,2026-07-13T11:54:12.599424,15.27588847,.0001422,43.0020,353.1921,273.8407,86.2282,0,U,66849,999,3542,.31599E-3,.8446E-4,0
STARLINK-36105,2025-281C,2026-07-13T11:48:39.524832,15.27593552,.0001124,43.0013,353.1605,259.7501,100.3224,0,U,66850,999,3542,.56499E-3,.15324E-3,0
STARLINK-36094,2025-281D,2026-07-13T11:22:45.264000,15.27587469,.0001151,43.0008,353.0210,255.9113,104.1611,0,U,66851,999,3542,.62728E-3,.17043E-3,0
STARLINK-35992,2025-281E,2026-07-13T11:17:11.111136,15.27613163,.0001701,43.0027,352.9911,263.4217,96.6441,0,U,66852,999,3542,.51591E-3,.13976E-3,0
STARLINK-35986,2025-281F,2026-07-13T11:11:39.196032,15.27586140,.0001594,43.0009,352.9657,278.3484,81.7187,0,U,66853,999,3542,.351E-3,.9411E-4,0
STARLINK-36087,2025-281G,2026-07-13T11:06:06.882624,15.27596092,.0001096,42.9990,352.9361,287.9202,72.1530,0,U,66854,999,3542,.38668E-3,.10399E-3,0
STARLINK-36090,2025-281H,2026-07-13T10:51:17.633088,15.27584499,.0001932,43.0008,352.8551,277.6904,82.3728,0,U,66855,999,3542,.59864E-3,.1625E-3,0
STARLINK-36072,2025-281J,2026-07-13T10:40:24.227904,15.27587939,.0002147,43.0003,353.6660,277.3436,82.7171,0,U,66856,999,3541,.34287E-3,.9187E-4,0
STARLINK-36083,2025-281K,2026-07-13T12:03:27.410112,15.27595442,.0001373,42.9986,353.2316,229.9044,130.1688,0,U,66857,999,3542,.49997E-3,.13528E-3,0
STARLINK-35118,2025-281L,2026-07-13T11:43:06.261024,15.27592032,.0000901,43.0003,353.1271,206.3526,153.7280,0,U,66858,999,3542,.48153E-3,.13017E-3,0
STARLINK-35646,2025-281M,2026-07-13T11:37:33.877632,15.27581139,.0001863,42.9984,353.0945,165.1862,194.9045,0,U,66859,999,3542,.63905E-3,.17365E-3,0
STARLINK-35987,2025-281N,2026-07-13T11:13:30.237312,15.27589737,.0000574,42.9989,352.9703,225.7229,134.3576,0,U,66860,999,3542,.40072E-3,.10784E-3,0
STARLINK-35991,2025-281P,2026-07-13T11:00:33.871104,15.27582319,.0002174,42.9972,352.9027,281.6795,78.3813,0,U,66861,999,3542,.34982E-3,.9377E-4,0
STARLINK-35974,2025-281Q,2026-07-13T11:32:00.269088,15.27593690,.0000889,43.0033,353.0702,232.4893,127.5878,0,U,66862,999,3542,.58198E-3,.15794E-3,0
STARLINK-36134,2025-281R,2026-07-13T12:19:54.040224,15.27592893,.0003058,43.0032,352.4545,286.7060,73.3456,0,U,66863,999,3543,.24235E-3,.6415E-4,0
STARLINK-36070,2025-281S,2026-07-13T11:59:45.318912,15.27591366,.0001335,43.0007,353.2139,222.8866,137.1882,0,U,66864,999,3542,.40245E-3,.10832E-3,0
STARLINK-36117,2025-281T,2026-07-13T12:31:00.313824,15.27581153,.0001521,43.0005,352.5150,269.1721,90.8957,0,U,66865,999,3543,.14803E-3,.3814E-4,0
STARLINK-36126,2025-281U,2026-07-13T10:42:15.505056,15.27588835,.0001259,43.0009,353.6717,252.5955,107.4759,0,U,66866,999,3540,.34077E-3,.9129E-4,0
STARLINK-36101,2025-281V,2026-07-12T20:29:17.692800,15.27596479,.00017705,43.0021,356.9674,266.5164,93.5485,0,U,66867,999,3531,.50221426E-3,.1359E-3,0
STARLINK-36108,2025-281W,2026-07-12T20:23:44.519712,15.27602101,.0001917,43.0043,356.9392,276.1128,83.9505,0,U,66868,999,3531,.50217873E-3,.13592E-3,0
STARLINK-36092,2025-281X,2026-07-13T11:56:03.125760,15.27581060,.0001372,43.0024,353.1946,247.2470,112.8237,0,U,66869,999,3541,.35966E-3,.9648E-4,0
STARLINK-36114,2025-281Y,2026-07-13T10:16:21.112896,15.27589498,.000134,43.0025,353.5366,279.9009,80.1692,0,U,66870,999,3540,.33402E-3,.8943E-4,0
STARLINK-36095,2025-281Z,2026-07-13T11:44:59.144352,15.27595828,.0001565,43.0025,353.1354,243.3551,116.7140,0,U,66871,999,3540,.79212E-3,.2161E-3,0
STARLINK-36082,2025-281AA,2026-07-13T10:05:14.912736,15.27587233,.0002087,43.0062,353.4774,280.8582,79.2035,0,U,66872,999,3540,.34113E-3,.9139E-4,0
STARLINK-36128,2025-281AB,2026-07-12T11:52:15.524832,15.27564574,.00031595,43.0000,358.5538,272.2081,87.8408,0,U,66873,999,3521,.28525846E-3,.7592E-4,0
